Send_Cust_ID,pack_ID,Cost,Street#,Str_Name,Apt#,City,State,ZIP
1613365503,1741539870,28,4715,Canal St.,3,Hauppague,Georgia,21197
1862324572,2101871142,1,5135,King Dr.,8,Hauppague,Oregon,14678
223335909,1873683676,27,3357,James Ct.,23,Amagansett,New Jersey,62701
568015587,1138742700,29,4067,Hicksville Road,8,Hauppague,Maine,13322
171401558,1560083183,13,1212,Clark St.,23,Sagaponack,Oregon,30040
864335521,1916802896,3,4883,Hollis Lane,34,Speonk,New York,48274
1343590524,614435941,16,939,Canal St.,8,Wantaugh,Georgia,24733
2138003165,1917965574,17,729,Jefferson Ave.,10,Hauppague,Pennsylvania,49774
614786266,1802483111,29,3216,149th St.,1,Wantaugh,Georgia,40510
2034994656,968591198,25,4740,James Ct.,5,Sagaponack,Oregon,29612
226347236,369154797,8,3505,Joy Ct.,8,Ronkonkoma,Louisiana,39237
848877458,1692742095,1,2019,Joy Ct.,4,Sagaponack,Louisiana,46358
263021681,1628233480,20,4206,King Dr.,9,Copaigue,West Virginia,37037
479312798,1848289168,6,2184,149th St.,7,Sagaponack,New York,28584
2141006932,2066697036,20,1561,Canal St.,85,Copaigue,Louisiana,23306
1827922638,1855463784,2,1692,Washington Ave.,4,Copaigue,Texas,62670
1385613974,319671803,18,4575,149th St.,4,Speonk,Florida,47021
289178123,406579217,15,299,Harrison St.,5,Commack,Florida,71079
2039380951,514477368,19,1385,Armstrong Ave.,6,Amagansett,Delaware,39961
2045001220,1905988321,2,5631,Canal St.,5,Massapequa,Washington,50345
1452761758,2030052900,18,4197,Clark St.,5,Massapequa,Virginia,45333
1217006621,1795441545,15,4340,Clark St.,44,Speonk,Pennsylvania,59414
626565722,1176515179,25,2917,Washington Ave.,7,Yaphank,California,67265
1173938162,520234463,4,721,James Ct.,1,Amagansett,Pennsylvania,41625
902928917,1350337056,1,1845,James Ct.,6,Copaigue,New York,54925
1146671176,1328403919,20,2163,Canal St.,5,Wyandanch,Louisiana,73108
729733603,415253619,5,594,Joy Ct.,7,Ronkonkoma,Oregon,30881
1590604531,159640985,22,4875,Joy Ct.,8,Wantaugh,Texas,54986
833041991,2104182622,22,5138,Clark St.,3,Sagaponack,Pennsylvania,64161
1249912028,261352380,20,5943,Hollis Lane,23,Amagansett,Pennsylvania,41666
1945678305,92024086,6,3080,Jefferson Ave.,6,Wantaugh,Delaware,69183
1643180513,551166460,21,2773,King Dr.,5,Quogue,Florida,65545
259203034,950836631,16,3320,Canal St.,8,Wantaugh,West Virginia,59694
37191674,261553691,10,1772,Harrison St.,8,Wyandanch,California,73059
890955934,190266207,3,1762,Armstrong Ave.,6,Wyandanch,West Virginia,43442
1517431204,79757551,1,814,James Ct.,85,Wantaugh,New York,32467
21563032,1024336875,4,5857,Hicksville Road,7,Wantaugh,New Jersey,34428
1839693108,812132796,2,4545,Hollis Lane,2,Quogue,Texas,61714
928459216,1962979145,21,2614,Washington Ave.,5,Wantaugh,New York,62909
694126940,844906928,27,328,Joy Ct.,3,Wantaugh,New Jersey,52904
197934923,675847578,2,4167,Hicksville Road,9,Sagaponack,New York,67496
1511482049,229824167,14,2696,Hollis Lane,99,Commack,Washington,66578
466084943,392091143,10,1019,Joy Ct.,4,Sagaponack,Washington D.C.,63145
224447271,1628740701,2,2385,Harrison St.,34,Hauppague,Washington D.C.,58350
916676033,887713883,18,3703,James Ct.,99,Wantaugh,New York,71965
324763737,1954832494,21,4710,Washington Ave.,5,Amagansett,West Virginia,54352
1751025890,1526948078,12,3036,King Dr.,10,Copaigue,New Jersey,19405
1685168015,451872655,22,3244,Hicksville Road,8,Commack,New Jersey,10945
279194863,1177513564,27,4110,Hollis Lane,23,Massapequa,Maine,22415
1725194675,1279046044,13,4298,Clark St.,85,Sagaponack,Virginia,49381
1784521778,1063125248,23,5512,Clark St.,6,Wantaugh,Delaware,71645
340141459,537849377,24,653,Armstrong Ave.,1,Massapequa,New Jersey,71976
1001113394,228591063,17,515,Clark St.,8,Quogue,Georgia,76611
1830055577,231728201,15,794,Armstrong Ave.,1,Quogue,California,23609
61695456,982053142,30,1331,Clark St.,10,Wantaugh,Florida,39308
154835280,1067892494,15,2852,Armstrong Ave.,9,Mattituck,New Jersey,22419
1079029936,722571342,24,2880,King Dr.,7,Sagaponack,California,33902
2126590628,13638095,20,841,Canal St.,6,Mattituck,West Virginia,23009
1085294258,1113307305,18,2301,Harrison St.,8,Yaphank,New Jersey,31854
558302028,1311660408,6,4849,149th St.,8,Quogue,New York,33712
1264121309,884546403,25,3455,Canal St.,2,Copaigue,Louisiana,78681
1528768154,1085791127,12,486,King Dr.,6,Ronkonkoma,Delaware,19017
61251560,1034621245,4,2301,Hicksville Road,99,Hauppague,Pennsylvania,68303
988959328,795670213,26,3094,Clark St.,1,Copaigue,Pennsylvania,30397
1144811546,957719894,7,4701,Hollis Lane,10,Amagansett,Delaware,12734
143291744,1927313164,16,317,Canal St.,10,Wyandanch,New York,49964
2072716717,1944156266,14,5066,Washington Ave.,6,Ronkonkoma,Texas,69370
609020479,987518180,3,986,Clark St.,4,Copaigue,West Virginia,75944
1025208951,1173907227,15,189,Clark St.,44,Ronkonkoma,Florida,53073
512546461,328525490,15,4240,149th St.,9,Copaigue,West Virginia,16480
1673483945,1409980552,17,5973,Armstrong Ave.,23,Wyandanch,Virginia,13271
439439527,608502446,1,2985,Clark St.,10,Copaigue,Washington D.C.,56035
1268007065,1175021079,14,5900,Clark St.,2,Northampton,Texas,65550
1978153198,99154511,26,2273,James Ct.,7,Wyandanch,Maine,60735
1191056051,1805930998,10,438,Washington Ave.,99,Yaphank,Maine,23813
84558626,491769959,13,2825,Harrison St.,2,Commack,Virginia,69347
585486775,1788946295,1,1836,Washington Ave.,34,Massapequa,Maine,28747
107976127,528846919,15,3494,Harrison St.,10,Commack,Pennsylvania,11615
469478052,1537920775,24,2609,Hollis Lane,7,Quogue,Delaware,55535
684203897,1296467555,30,4567,Harrison St.,23,Mattituck,Pennsylvania,40007
687112638,641990445,16,3551,Canal St.,44,Quogue,New York,33417
1484974284,848679430,27,2591,Hicksville Road,2,Ronkonkoma,Texas,23939
1744689991,1275178122,6,2373,King Dr.,34,Wyandanch,Virginia,68301
505686198,2055087045,5,5568,Hicksville Road,85,Amagansett,West Virginia,61925
1496150677,1511593096,3,4146,James Ct.,4,Northampton,Louisiana,62045
1310254389,562988438,12,2403,Armstrong Ave.,99,Sagaponack,Texas,12635
279659884,959635701,19,5889,Hollis Lane,44,Commack,New Jersey,20490
1517212373,788989795,28,5436,King Dr.,3,Yaphank,California,29344
470777723,1711199855,9,579,Hollis Lane,99,Northampton,Texas,53205
1292935735,164079184,28,854,Hicksville Road,9,Northampton,California,75863
1232672028,924625966,17,83,Hollis Lane,6,Mattituck,West Virginia,43886
1234099975,476284102,19,3284,Hicksville Road,4,Sagaponack,Virginia,12694
1282196620,1090533691,13,5649,King Dr.,5,Speonk,New York,28697
61806989,334599855,10,920,Joy Ct.,1,Northampton,Oregon,12073
60205542,120748533,11,1550,Clark St.,1,Wyandanch,West Virginia,58983
1982444194,105613133,3,2004,King Dr.,44,Yaphank,Oregon,42390
442883170,311015470,10,1983,Harrison St.,7,Commack,New Jersey,78816
340783458,2003983680,21,455,149th St.,4,Wyandanch,Maine,49079
1545744984,1460224240,20,4616,Hicksville Road,9,Yaphank,New York,77945
1657402024,1259079024,4,5132,Canal St.,3,Amagansett,West Virginia,30142
1070601687,24294547,13,3524,149th St.,99,Hauppague,New Jersey,55660
68070385,1154252469,18,788,Hicksville Road,99,Hauppague,Oregon,16208
686705802,2057734228,17,4222,Washington Ave.,85,Sagaponack,Washington D.C.,45871
719326705,1526408738,10,16,Joy Ct.,7,Massapequa,New York,76723
1414136809,1549757554,20,3474,Armstrong Ave.,44,Copaigue,Washington,61395
556070587,1517823769,26,739,Clark St.,8,Yaphank,California,68358
525327828,504487470,8,5300,149th St.,9,Hauppague,Washington,37036
742981624,1004935760,22,95,Joy Ct.,99,Massapequa,Washington D.C.,39498
1289087415,13198064,23,4272,Joy Ct.,6,Amagansett,New Jersey,71307
1653371748,271610911,20,3916,Joy Ct.,85,Speonk,Texas,54425
460092319,1167796300,20,4332,Canal St.,9,Mattituck,West Virginia,51075
742536768,1466682503,27,4497,Hicksville Road,34,Speonk,California,73059
1099408552,381662273,14,86,Jefferson Ave.,6,Amagansett,Georgia,57536
649983019,700568211,11,3054,Hicksville Road,44,Quogue,Washington,52181
880058201,415553994,22,4833,Clark St.,5,Copaigue,Louisiana,19647
32907873,1409788082,1,266,Armstrong Ave.,8,Quogue,Washington,57861
600561323,214855500,17,597,Washington Ave.,4,Speonk,Washington,23893
1892533764,419660017,6,3027,149th St.,34,Copaigue,Washington D.C.,38130
138076034,526890812,13,5986,Jefferson Ave.,44,Hauppague,New Jersey,15280
1404805811,37871104,27,4091,Armstrong Ave.,2,Massapequa,Georgia,76788
858272408,689155802,10,2961,Armstrong Ave.,85,Ronkonkoma,New Jersey,52086
1229210196,1173711124,16,751,Harrison St.,1,Commack,Pennsylvania,40601
768526307,1410757493,22,3014,Armstrong Ave.,99,Wyandanch,New Jersey,65795
861604757,1714330852,2,3464,Hicksville Road,85,Wantaugh,Virginia,67887
1227943093,1274727545,10,4333,Armstrong Ave.,8,Quogue,Louisiana,14389
210469448,354198279,2,4210,Joy Ct.,4,Northampton,Florida,74038
206387935,748818162,1,992,Washington Ave.,5,Wantaugh,New Jersey,65900
466500443,658240310,8,3923,James Ct.,7,Northampton,Virginia,75654
1038971221,1778493171,25,1,Clark St.,23,Speonk,Georgia,63561
2134814163,1112281848,18,5997,Canal St.,7,Amagansett,Georgia,52120
1544660450,1988396006,24,16,King Dr.,8,Massapequa,Texas,51458
1151189714,90572919,6,3671,Hicksville Road,85,Copaigue,Pennsylvania,45481
606512028,703698534,24,4777,Hicksville Road,3,Mattituck,Maine,70319
1588920386,2116793419,8,4433,King Dr.,8,Copaigue,Florida,27270
1644253942,1199958243,20,3571,James Ct.,3,Northampton,Pennsylvania,72152
1523829872,224631858,19,273,Jefferson Ave.,99,Copaigue,New Jersey,39644
1262159453,330647552,8,589,Jefferson Ave.,85,Commack,Oregon,44748
1902787709,1579697098,15,3491,Armstrong Ave.,7,Sagaponack,Maine,16412
904462708,1003017250,4,3257,James Ct.,99,Massapequa,Virginia,48916
773721117,1498990717,16,2153,Hicksville Road,23,Wantaugh,Louisiana,66871
775508260,1125014361,17,2697,James Ct.,4,Wyandanch,Georgia,18048
1359473372,975051513,9,1387,Hicksville Road,9,Amagansett,West Virginia,41314
653662167,606955887,19,2241,Clark St.,8,Commack,Georgia,18557
1690476952,255601311,30,2527,Washington Ave.,10,Massapequa,New York,10521
1011356495,209795949,3,664,James Ct.,7,Commack,Florida,65480
980310691,472723079,10,1068,King Dr.,2,Speonk,Florida,55246
257417388,122100916,21,3011,Armstrong Ave.,99,Wyandanch,Maine,78630
2132834184,427471819,28,5727,Washington Ave.,6,Wantaugh,Louisiana,11308
1961437015,2004569396,20,2050,Jefferson Ave.,9,Copaigue,West Virginia,16049
751960348,315703777,23,4078,King Dr.,10,Yaphank,New York,25184
791307430,2056770335,16,5033,Armstrong Ave.,8,Amagansett,Washington,31697
842156320,1135117323,5,2871,Clark St.,4,Sagaponack,Florida,54115
1301403692,513748448,20,991,Harrison St.,9,Wantaugh,New Jersey,77732
1332834383,1522041313,20,4311,Harrison St.,1,Quogue,Florida,19307
907252686,973319411,7,5547,James Ct.,2,Speonk,Delaware,72466
143923309,1884377400,27,3424,James Ct.,5,Mattituck,West Virginia,41648
1635564223,132405939,9,2742,149th St.,7,Wyandanch,New York,24946
389136225,503568549,10,2568,149th St.,5,Copaigue,Pennsylvania,48340
194285527,1125868009,6,1942,Armstrong Ave.,6,Commack,New York,27681
1434287935,610335781,2,5383,Washington Ave.,3,Massapequa,Washington,53923
1319656857,1836268666,26,4935,Canal St.,85,Wyandanch,Louisiana,40893
372432519,213871738,7,1507,Joy Ct.,99,Quogue,Pennsylvania,57330
723257743,1703918144,23,712,King Dr.,10,Sagaponack,Delaware,63675
1772086449,138745308,5,4624,Jefferson Ave.,1,Hauppague,Oregon,64221
1673924776,1803301033,10,5858,Washington Ave.,8,Speonk,New Jersey,12064
1959456933,60218358,12,1067,King Dr.,44,Ronkonkoma,New York,56374
528728946,679431784,4,5194,Clark St.,99,Wantaugh,Florida,14086
1702773079,15873792,2,2128,Hollis Lane,85,Sagaponack,Pennsylvania,31235
1284384539,2119682580,11,2882,Washington Ave.,1,Yaphank,New York,36108
1022321799,825223460,21,884,Armstrong Ave.,85,Sagaponack,Washington,78852
418540377,1442338631,1,3674,Armstrong Ave.,10,Sagaponack,Washington,11727
4504580,1736715090,1,1737,Clark St.,85,Massapequa,Virginia,26909
681784674,1890067272,18,2825,149th St.,44,Speonk,West Virginia,37329
679749562,1632593370,21,5737,Clark St.,1,Wantaugh,Washington,41583
1497111887,496695589,20,1572,Canal St.,1,Copaigue,New York,45346
402721077,324932431,23,2451,Armstrong Ave.,23,Yaphank,Louisiana,39758
2063854936,110541956,17,1448,Armstrong Ave.,8,Wantaugh,Maine,49909
1274342664,1779913511,30,428,Hicksville Road,5,Massapequa,Pennsylvania,23826
1357840772,1097143099,24,701,King Dr.,3,Wantaugh,Delaware,40981
1560352542,144686581,28,5061,Hicksville Road,99,Speonk,Louisiana,10446
1965251197,793247575,20,2459,Washington Ave.,8,Northampton,New York,31652
511844495,1617577449,19,3927,Hollis Lane,85,Northampton,Georgia,38987
1600034651,49757651,26,3340,Harrison St.,7,Speonk,West Virginia,71426
212611150,899128486,6,3698,149th St.,85,Ronkonkoma,Delaware,38594
2067357788,1607803351,21,2816,Jefferson Ave.,1,Copaigue,West Virginia,58388
543867773,468664955,19,5170,Canal St.,10,Wantaugh,Louisiana,72178
156721054,884162843,17,1126,149th St.,2,Copaigue,Florida,72527
1761828609,1236063014,7,160,King Dr.,3,Yaphank,Georgia,22205
324631819,1563345787,9,4530,Joy Ct.,10,Copaigue,West Virginia,47331
641075563,1785880971,17,1342,Harrison St.,34,Yaphank,Florida,64199
1171109841,2072964748,19,5828,Armstrong Ave.,99,Northampton,West Virginia,79019
1136163586,87229887,11,3109,Jefferson Ave.,34,Northampton,West Virginia,58976
343667153,131480982,23,4758,Joy Ct.,5,Northampton,Delaware,51231
192098642,1217507337,18,3070,Hicksville Road,85,Hauppague,New Jersey,77050
1224071332,284878578,13,4306,Hollis Lane,6,Hauppague,Pennsylvania,79703
1930947643,1540466564,15,2938,Harrison St.,10,Quogue,Washington,44526
1980077026,855720305,27,1985,Washington Ave.,5,Amagansett,Maine,42402
1140044846,1206574139,24,1685,Hollis Lane,44,Mattituck,Pennsylvania,77796
568330626,1986754327,4,3014,149th St.,6,Massapequa,Delaware,25246
1786235867,885172914,17,4657,King Dr.,34,Commack,West Virginia,49067
228370245,1746599427,13,1908,Canal St.,99,Speonk,West Virginia,53432
812352301,1752523245,24,2682,Hicksville Road,10,Copaigue,Georgia,12051
1678981958,512382224,25,2411,Clark St.,1,Wyandanch,Texas,71378
1344253474,1363711281,8,2771,James Ct.,34,Wantaugh,Washington,56306
1415398870,1095739215,30,4069,149th St.,5,Sagaponack,California,27743
1545908116,1417545670,15,3224,Hollis Lane,2,Hauppague,West Virginia,38434
517037069,226142243,13,618,Armstrong Ave.,23,Hauppague,Florida,30629
172424908,1618615098,8,5154,Harrison St.,3,Wyandanch,Maine,55124
333837416,1300420954,20,2667,Joy Ct.,85,Massapequa,Maine,67642
1890547247,1475583926,1,5442,Washington Ave.,6,Ronkonkoma,Texas,50214
701748774,1585800531,17,1444,Armstrong Ave.,85,Wantaugh,Delaware,69986
679246359,1073840660,7,2461,149th St.,7,Yaphank,Texas,19822
2136811522,1532948680,5,1334,149th St.,99,Commack,Florida,42930
1741506675,1501699212,4,1940,Jefferson Ave.,1,Ronkonkoma,Louisiana,12565
8637478,681224842,18,2206,Hicksville Road,10,Yaphank,Louisiana,42774
1026026611,1976577271,11,178,Harrison St.,99,Amagansett,Georgia,26676
2124062026,2008224531,15,5848,Armstrong Ave.,9,Speonk,Texas,56393
988089650,91762340,12,4436,Clark St.,85,Speonk,Oregon,70626
1612235801,1559585379,10,3178,Washington Ave.,9,Quogue,Virginia,71917
1820328646,724227601,28,861,Hicksville Road,7,Hauppague,Florida,66314
371950592,381108326,29,2212,King Dr.,85,Northampton,New York,45372
1136161529,147110334,28,1095,King Dr.,8,Commack,Florida,59011
1405195218,1450777233,28,2110,Harrison St.,2,Northampton,Oregon,49133
1440781657,469308838,8,2607,Armstrong Ave.,8,Copaigue,Washington,40322
1142333601,2074700060,30,3874,Armstrong Ave.,4,Commack,Louisiana,42292
1869991433,1755092457,18,944,Washington Ave.,8,Wantaugh,New York,51588
1864794212,1370920687,3,835,Washington Ave.,7,Wantaugh,Florida,11865
1049261922,101382482,14,3482,Harrison St.,3,Speonk,New York,66815
120956460,1277960400,4,1147,Jefferson Ave.,8,Sagaponack,Florida,52089
557816817,2125344157,16,1044,James Ct.,85,Wyandanch,Maine,19108
1615897257,58870564,19,5275,James Ct.,2,Quogue,Pennsylvania,43747
1746695470,221351274,7,3160,Hollis Lane,9,Wyandanch,Maine,73192
533408256,1551837472,2,1895,Clark St.,5,Commack,West Virginia,63284
997877444,1766828777,8,425,Hollis Lane,2,Mattituck,Pennsylvania,23740
628212479,1599112434,2,3488,Harrison St.,5,Speonk,Florida,49906
1780861675,649288321,14,4124,Hollis Lane,4,Massapequa,New York,42856
2010166244,145993219,20,529,Jefferson Ave.,4,Yaphank,Maine,52351
692281852,602768833,23,5325,149th St.,23,Yaphank,Delaware,48768
1246297619,566079772,15,1877,Canal St.,85,Mattituck,Florida,40875
1336737295,1995700486,4,1648,Armstrong Ave.,7,Sagaponack,Virginia,37202
913214497,956411332,18,1140,149th St.,99,Massapequa,Virginia,54572
1325251307,1095394681,21,5938,Armstrong Ave.,99,Yaphank,Louisiana,16750
1192469717,862307570,16,524,Armstrong Ave.,7,Quogue,Maine,34383
1007330153,1731591435,17,2157,Armstrong Ave.,34,Copaigue,California,16225
1011288522,1912710811,26,5653,Joy Ct.,1,Wyandanch,Florida,41311
2139764442,1006528335,13,2839,Jefferson Ave.,6,Commack,Oregon,71492
759097739,1930720890,7,1540,King Dr.,8,Speonk,Florida,24529
1017527234,1095801888,24,281,Canal St.,7,Commack,Washington,51806
2010727196,1013269478,4,5692,Harrison St.,8,Ronkonkoma,New York,52840
723278016,154336290,3,1842,Washington Ave.,6,Commack,Oregon,53998
730205186,889752893,4,1323,Harrison St.,6,Wantaugh,Texas,50706
1067184431,2527070,21,2523,Hollis Lane,4,Wyandanch,Washington,27307
2119901696,1283155209,10,1519,Clark St.,34,Mattituck,Virginia,54641
106555552,1727639361,10,3017,Hicksville Road,2,Wyandanch,California,42076
1559353054,2048865707,13,408,Harrison St.,85,Sagaponack,Washington,13131
1689558774,197251968,26,4170,James Ct.,3,Sagaponack,West Virginia,34972
338230957,603420639,11,4109,149th St.,8,Commack,Virginia,40672
1881495168,233785439,25,3552,James Ct.,99,Speonk,Delaware,44050
2137612307,1239474475,20,3534,Joy Ct.,4,Amagansett,Virginia,67990
184954395,1464863019,14,5747,Clark St.,3,Wyandanch,Maine,16373
141099626,230277339,2,949,James Ct.,99,Sagaponack,Virginia,23177
130093825,1514265250,23,956,Joy Ct.,99,Hauppague,Louisiana,33834
1548820076,473423043,29,2062,Hollis Lane,99,Amagansett,New Jersey,44426
1219031174,1073043278,20,2362,Washington Ave.,8,Wantaugh,Georgia,31406
333624433,592825024,16,832,Hollis Lane,4,Hauppague,Florida,64516
327260064,969372378,10,2934,Canal St.,23,Wyandanch,Florida,66612
1463060041,196175969,14,3228,Clark St.,7,Quogue,Virginia,32129
1540310226,296210852,21,1239,Armstrong Ave.,44,Hauppague,Georgia,50548
1735340783,946722809,30,3857,Armstrong Ave.,10,Quogue,New York,44198
1134917768,347879119,21,3739,149th St.,3,Amagansett,Georgia,26301
80183142,976009412,3,2907,Hollis Lane,23,Commack,West Virginia,49783
2144824500,1361282390,2,3249,Washington Ave.,34,Wyandanch,Pennsylvania,29513
15514152,1011732374,24,200,Hollis Lane,1,Amagansett,New Jersey,70255
952531473,1343874995,18,5457,Hollis Lane,1,Ronkonkoma,Maine,68717
449848789,208137738,13,4600,Joy Ct.,8,Mattituck,Virginia,67841
1380196358,799501758,4,4921,Hollis Lane,44,Quogue,Washington D.C.,40651
912800696,605929443,1,5885,James Ct.,4,Wantaugh,California,67871
1330398169,1483200950,22,1460,Harrison St.,23,Ronkonkoma,New Jersey,14410
1155426318,1938925782,18,320,Washington Ave.,2,Speonk,Washington,57256
830932591,414036807,10,4333,Joy Ct.,8,Sagaponack,Louisiana,73410
274327540,1059827879,14,2911,Clark St.,4,Yaphank,Louisiana,71205
284748669,1904317112,28,4719,Jefferson Ave.,23,Hauppague,Oregon,74443
1899901981,2139523101,2,847,James Ct.,99,Quogue,California,60513
449896881,1465235056,14,2237,James Ct.,8,Hauppague,Washington D.C.,73619
1769843567,1288576758,3,3465,Harrison St.,1,Copaigue,Oregon,29414
884027637,1011048986,1,3222,Hollis Lane,3,Northampton,Virginia,61495
1315571193,1800173966,23,4294,King Dr.,23,Amagansett,Delaware,37962
1330500239,1054640367,14,5978,Jefferson Ave.,8,Wyandanch,Georgia,51154
1662960281,467410099,5,4605,Armstrong Ave.,5,Sagaponack,New Jersey,76038
514188938,1500472237,9,3327,Joy Ct.,1,Sagaponack,Maine,45003
915327221,1280468636,9,5320,Hollis Lane,6,Amagansett,Washington,21922
1223737945,795383538,13,5866,Clark St.,85,Ronkonkoma,Washington,37428
1472046465,1414376870,3,1,149th St.,10,Hauppague,Louisiana,74199
1436655220,915570636,4,5601,Hollis Lane,5,Wyandanch,Virginia,62602
26156624,983132201,23,705,Armstrong Ave.,8,Massapequa,Pennsylvania,65590
1104648981,1085760128,18,5817,Joy Ct.,85,Amagansett,Oregon,14594
1038724539,1944493110,24,3731,Canal St.,44,Northampton,New Jersey,15483
219502612,89660038,19,2916,Hicksville Road,23,Yaphank,Florida,79902
763575015,752175824,30,932,149th St.,9,Northampton,Pennsylvania,60996
268605516,1393054462,17,537,Washington Ave.,3,Copaigue,Georgia,11705
236714076,7839683,14,985,Canal St.,7,Amagansett,West Virginia,73879
1076922058,280249331,14,3336,149th St.,9,Wyandanch,New Jersey,40397
1528016393,1248120271,18,223,King Dr.,44,Sagaponack,Louisiana,60221
204708462,1779284686,25,362,Armstrong Ave.,4,Amagansett,Pennsylvania,30095
108471842,2028293794,24,2585,149th St.,23,Copaigue,Virginia,13446
1820093556,2025282472,28,5634,Joy Ct.,5,Ronkonkoma,Washington,68232
157320043,308192912,6,93,Clark St.,9,Massapequa,Florida,68860
1659832035,1843221778,8,5748,Armstrong Ave.,85,Quogue,Washington D.C.,14544
648526769,929166774,17,4962,Hollis Lane,1,Wantaugh,Louisiana,58646
1605919108,1255881029,4,2785,King Dr.,2,Commack,New York,38509
696996402,158790354,22,472,Hollis Lane,2,Wyandanch,Virginia,54670
1885757103,82550158,4,4833,Hicksville Road,3,Commack,Georgia,41478
1725629432,314511271,14,2886,Clark St.,3,Amagansett,Virginia,20836
481576125,407440427,24,1327,Canal St.,3,Massapequa,Virginia,31740
462547758,282157944,4,4440,Washington Ave.,9,Commack,Texas,77885
1412257216,2083620012,15,920,Hollis Lane,4,Quogue,Maine,74471
1929279154,1141683650,9,4308,James Ct.,2,Wantaugh,New Jersey,16367
1195371658,253248587,11,1203,Clark St.,10,Sagaponack,Washington,25110
1309702183,1754204654,1,4237,Hicksville Road,34,Yaphank,Florida,67485
1520227543,231874969,21,3668,Hollis Lane,4,Wyandanch,Georgia,43064
760726793,210306157,22,5590,Joy Ct.,3,Yaphank,West Virginia,53275
2073695227,570029594,26,3331,Hollis Lane,5,Amagansett,Pennsylvania,37265
1675427407,246108724,18,2005,Harrison St.,3,Northampton,Pennsylvania,62929
1414787089,2064524428,19,579,James Ct.,99,Sagaponack,Georgia,24304
1092996692,197594437,27,4836,Jefferson Ave.,7,Amagansett,New Jersey,78293
934731100,1883851680,5,1030,James Ct.,1,Massapequa,Texas,29336
1381717462,740971401,12,5034,Canal St.,99,Wantaugh,Washington D.C.,24059
1191017489,1848437542,28,2890,Armstrong Ave.,9,Wyandanch,Virginia,15175
1501355777,513052886,10,2226,Canal St.,10,Mattituck,West Virginia,57438
199074932,372290736,7,4007,Washington Ave.,8,Wyandanch,New Jersey,55631
2030553245,1750286772,18,4491,Washington Ave.,7,Quogue,California,54511
637635532,140458228,4,3334,Washington Ave.,7,Ronkonkoma,West Virginia,48829
1578417038,1310677494,12,5725,Canal St.,10,Sagaponack,New Jersey,51110
2115992151,1385998386,3,502,Hollis Lane,8,Sagaponack,Louisiana,50933
656910850,2119461105,18,5381,Canal St.,23,Wyandanch,Oregon,56194
2025111793,345880082,15,4989,James Ct.,9,Speonk,Delaware,12183
1164253617,399422654,18,4142,149th St.,23,Mattituck,Washington,48262
1017332968,2049960092,11,4489,Armstrong Ave.,85,Copaigue,New York,41634
988961242,433766007,26,734,Armstrong Ave.,85,Quogue,Virginia,24948
176945395,189101547,25,5219,Armstrong Ave.,10,Massapequa,Florida,56723
961890712,248716070,21,1944,James Ct.,85,Commack,West Virginia,27449
1398414319,8019327,10,2592,149th St.,10,Speonk,California,15408
1794786429,964538274,1,174,Jefferson Ave.,34,Northampton,Maine,79623
796491956,1020717083,11,5448,Washington Ave.,9,Sagaponack,Virginia,35965
2081288523,674615612,6,804,149th St.,4,Copaigue,Washington,19416
1107172819,846378046,3,4598,Harrison St.,8,Massapequa,Delaware,23573
2118423034,1526757826,6,971,Clark St.,4,Sagaponack,Delaware,70987
1266784463,2027926901,14,2063,Hicksville Road,8,Yaphank,Washington,75211
826793005,1658047233,26,5478,James Ct.,4,Speonk,New York,57649
149394932,398727641,15,3539,149th St.,2,Ronkonkoma,Maine,40030
712463979,670364799,29,2559,Canal St.,5,Wyandanch,Washington,57800
325497986,1457400608,8,1002,Jefferson Ave.,6,Wantaugh,Washington D.C.,36723
333512865,1640682976,20,4571,149th St.,6,Speonk,Florida,56419
166194855,1325694951,24,2430,King Dr.,9,Sagaponack,California,20536
1693529444,1709201639,7,5112,Joy Ct.,85,Commack,Washington,76391
1504345399,703919580,14,4977,Armstrong Ave.,5,Wantaugh,New Jersey,24988
397475272,118857676,24,3938,Hollis Lane,1,Sagaponack,West Virginia,38121
60262607,679280290,13,5136,Hicksville Road,34,Speonk,Georgia,49592
546998917,1782656790,13,1100,King Dr.,23,Mattituck,Florida,75726
1302807725,1068502883,30,3937,Joy Ct.,34,Commack,Florida,30097
1319662441,1828902389,4,2596,Joy Ct.,1,Yaphank,Washington,21456
1224422164,49612316,24,436,Washington Ave.,34,Amagansett,Oregon,52955
1575962927,1633561729,24,5014,Hicksville Road,99,Sagaponack,California,64870
1121333192,2047336426,26,769,Clark St.,8,Northampton,Florida,63490
1784329706,1769813286,14,4993,Jefferson Ave.,1,Hauppague,New York,60231
1320655555,252326032,5,4490,Hollis Lane,8,Speonk,New Jersey,77111
373417299,1631087839,26,3521,149th St.,99,Northampton,Washington D.C.,55850
923862001,1667085766,23,5615,Harrison St.,2,Ronkonkoma,Washington,70693
1313308795,694027710,24,4376,Canal St.,5,Yaphank,Texas,79394
1574219842,589932499,27,667,Joy Ct.,1,Amagansett,West Virginia,48688
1370142566,486018996,16,1872,James Ct.,8,Ronkonkoma,Virginia,71821
1013129515,276616492,9,841,Hollis Lane,44,Quogue,Washington,74586
196241234,568401224,23,51,Washington Ave.,8,Copaigue,Virginia,67323
1878563118,1230843882,8,566,Armstrong Ave.,85,Quogue,Oregon,39414
496790897,1464919163,26,4344,Jefferson Ave.,2,Ronkonkoma,Georgia,16520
745263796,1792901649,2,1496,149th St.,5,Hauppague,California,42604
1605364752,40443834,6,1373,Jefferson Ave.,44,Wyandanch,New York,13398
1637968403,1877805237,10,5881,Hollis Lane,2,Speonk,Delaware,32124
1338850116,1951231855,21,1707,Clark St.,10,Northampton,Florida,30352
1896661076,1083934256,29,2871,Hicksville Road,7,Mattituck,West Virginia,33331
2070689347,1119115847,29,3617,Hicksville Road,7,Massapequa,Virginia,45150
366903751,1064892616,10,3980,Jefferson Ave.,7,Speonk,Louisiana,25380
120429514,927543542,26,2146,Canal St.,10,Wantaugh,Georgia,36976
1925311045,1172821290,2,3249,Washington Ave.,34,Yaphank,Florida,46054
867013125,621687265,16,2064,Clark St.,2,Sagaponack,Virginia,16897
670957667,398324570,19,647,Canal St.,4,Commack,New Jersey,61573
639669624,1296546219,20,358,Washington Ave.,4,Speonk,Texas,12440
623720894,1565855943,30,552,Canal St.,4,Hauppague,Louisiana,32717
659879617,1720631118,9,5422,King Dr.,10,Speonk,Maine,33717
1076917215,887286614,13,2995,Joy Ct.,1,Copaigue,Oregon,63118
322343904,1692710150,22,4619,Hicksville Road,23,Wantaugh,Florida,41698
615927838,861458266,3,2466,Clark St.,44,Ronkonkoma,Louisiana,35045
1463875605,2025444070,22,2810,Hollis Lane,44,Copaigue,Maine,72486
804025417,1358857615,19,1598,149th St.,3,Yaphank,Texas,31509
527108194,879867050,17,1449,Hollis Lane,85,Wyandanch,Maine,33644
490725042,836216387,23,4254,Hollis Lane,8,Mattituck,West Virginia,48573
1755030227,1902655975,19,4200,Jefferson Ave.,6,Wantaugh,Louisiana,57822
461212066,1504738321,24,4872,Armstrong Ave.,23,Quogue,Texas,52184
192291841,1192830539,19,4552,Clark St.,44,Wantaugh,Louisiana,18167
1686008099,1622153870,11,4053,Jefferson Ave.,7,Hauppague,Georgia,47949
1533143074,1266270068,6,1581,Washington Ave.,34,Wyandanch,Georgia,33487
457528661,457483410,22,283,Armstrong Ave.,7,Northampton,California,46357
1145510995,531267131,28,3703,Hicksville Road,4,Commack,New Jersey,67691
2131833983,135838137,18,3739,Armstrong Ave.,9,Wyandanch,New York,41399
570120386,570164017,26,5031,Canal St.,3,Sagaponack,Washington,58560
1986763093,922921992,27,1559,Jefferson Ave.,6,Massapequa,Maine,35125
508595602,1101676687,24,553,Harrison St.,7,Wantaugh,Pennsylvania,30229
79422690,1399307411,6,1476,Jefferson Ave.,7,Mattituck,California,63669
1579356781,2144984947,24,4630,Armstrong Ave.,8,Massapequa,California,42001
698963666,808237396,22,5099,King Dr.,2,Sagaponack,New Jersey,56098
1461169105,1476473586,17,5565,Jefferson Ave.,34,Wantaugh,Washington,75774
648653760,1117697600,6,3011,Joy Ct.,4,Hauppague,Washington,16978
927916376,1231599912,15,4714,Washington Ave.,1,Wyandanch,Virginia,29692
2032459415,2078296347,16,80,149th St.,5,Sagaponack,Maine,74442
93328712,1053860102,3,5977,Harrison St.,34,Sagaponack,Delaware,42329
85154002,217772377,24,126,149th St.,9,Commack,New York,24661
223328217,1055175491,11,2922,Hollis Lane,9,Hauppague,California,68970
1872252163,1722791094,16,4719,Armstrong Ave.,3,Yaphank,New York,48780
1733900240,2015772018,14,211,Harrison St.,7,Ronkonkoma,Maine,40472
480247707,250821936,30,797,Hicksville Road,6,Ronkonkoma,Oregon,34439
1060552226,1287806945,3,1598,149th St.,34,Northampton,West Virginia,38895
484019106,2088760895,3,4563,Clark St.,7,Mattituck,California,37615
940530538,2673036,27,4779,James Ct.,34,Wyandanch,Maine,79963
503161750,1016466737,1,690,Joy Ct.,85,Hauppague,Washington D.C.,73446
1153195051,944515325,14,2122,Jefferson Ave.,7,Hauppague,Washington D.C.,51396
301109863,1260215244,15,5721,Washington Ave.,10,Yaphank,Florida,33937
1068598265,1300188580,9,3383,Jefferson Ave.,7,Wantaugh,New Jersey,34839
69221630,440855652,9,1858,King Dr.,1,Wyandanch,Oregon,63922
1536868270,1978354380,27,5752,Joy Ct.,99,Quogue,Georgia,65199
1256866440,120781752,18,340,King Dr.,5,Quogue,Washington,29549
515800080,952585195,21,4684,Hicksville Road,2,Wyandanch,New York,37039
703594553,1468557070,7,1361,149th St.,5,Amagansett,Oregon,26836
413368396,1449122231,28,4113,Jefferson Ave.,9,Sagaponack,West Virginia,26737
835310838,1895554076,2,4669,Canal St.,10,Wyandanch,Pennsylvania,36150
490633958,1049294847,2,5495,King Dr.,2,Massapequa,Washington,25410
1939108322,2045750392,29,2492,Clark St.,99,Ronkonkoma,Oregon,62463
368059341,245951987,26,4135,Harrison St.,3,Northampton,Virginia,31580
149976696,121757533,14,2359,Harrison St.,34,Wantaugh,Washington,77392
43251558,1894718740,9,5414,King Dr.,34,Northampton,Washington,47777
9990514,464603847,18,2672,Joy Ct.,34,Quogue,Florida,51502
1854366853,2065018558,18,4578,Joy Ct.,85,Yaphank,Delaware,10126
1812351843,187541471,8,1024,Joy Ct.,99,Amagansett,West Virginia,22734
231037539,568392896,20,2277,King Dr.,8,Copaigue,Maine,60922
997983370,629835530,7,3624,Jefferson Ave.,4,Sagaponack,Delaware,36845
1884109777,1250531127,15,4949,Washington Ave.,99,Commack,Georgia,60462
679064824,1194050776,7,3860,Hicksville Road,99,Sagaponack,Georgia,22869
706372073,1720127587,5,3704,149th St.,10,Wantaugh,West Virginia,78581
1401638111,1296102227,11,3443,James Ct.,7,Ronkonkoma,Texas,24052
1026675393,1594486490,3,4956,Armstrong Ave.,10,Speonk,New Jersey,37714
1543852634,568236607,17,4428,Armstrong Ave.,8,Copaigue,California,76816
92481454,767309616,9,114,Clark St.,9,Ronkonkoma,Washington D.C.,40667
597603010,1890190588,24,4036,Armstrong Ave.,2,Massapequa,West Virginia,79182
343120592,567283608,2,3173,Armstrong Ave.,10,Mattituck,California,36123
384489258,14259682,21,2563,Clark St.,7,Quogue,Pennsylvania,36589
1651236008,67861213,12,4352,Clark St.,85,Northampton,Texas,69806
1247735371,1934003467,28,1219,Armstrong Ave.,44,Commack,Pennsylvania,69144
646639822,50049935,1,4872,Joy Ct.,4,Copaigue,Delaware,26030
1878421953,1289315223,22,4681,Hollis Lane,34,Northampton,Oregon,46468
880765880,1486566627,21,917,149th St.,44,Northampton,Maine,79274
526924065,1712985264,24,3873,Harrison St.,6,Wyandanch,Pennsylvania,49924
639224798,1899635819,1,3044,Canal St.,85,Commack,New Jersey,73967
597695241,1266021002,2,801,Joy Ct.,10,Wantaugh,California,27448
2022462852,576257650,21,2851,James Ct.,9,Sagaponack,Pennsylvania,15382
2127729385,1822703595,10,1496,Hicksville Road,85,Massapequa,New Jersey,49677
1545607835,1340786264,5,2231,James Ct.,85,Amagansett,Virginia,35132
291228152,738606518,29,2133,Hollis Lane,34,Mattituck,Washington D.C.,64150
1583495010,673477877,24,3443,Joy Ct.,2,Commack,Louisiana,58758
1725538889,1055029322,16,4545,Canal St.,7,Amagansett,California,53717
1037930582,2014779555,11,4249,James Ct.,5,Wyandanch,Florida,55683
1610556586,1538976111,1,2969,Joy Ct.,34,Wyandanch,New York,30763
1966313327,407731517,4,2641,King Dr.,1,Massapequa,West Virginia,24656
272456856,1898070480,18,3232,Joy Ct.,2,Commack,Virginia,55915
559137915,26994156,29,1206,149th St.,85,Quogue,Pennsylvania,32945
733145371,1861478427,15,2557,Washington Ave.,99,Massapequa,New Jersey,50642
1995337664,68898636,17,5879,Hicksville Road,10,Copaigue,Texas,21256
1109212708,1800453106,28,4185,Armstrong Ave.,44,Copaigue,California,11368
1986504210,667090442,15,1958,King Dr.,6,Hauppague,New Jersey,58424
516941694,1957066753,20,3612,Armstrong Ave.,4,Speonk,New Jersey,44394
1043854000,500970689,21,1540,Clark St.,99,Wantaugh,Maine,20747
1344437534,1887039674,6,5158,Joy Ct.,44,Wantaugh,West Virginia,39448
1146053985,1256747899,7,1867,Harrison St.,8,Northampton,Pennsylvania,79612
1995114556,392948793,28,4897,James Ct.,4,Sagaponack,Oregon,48453
140599897,802325467,27,200,Hicksville Road,34,Yaphank,New Jersey,74213
711606566,1148367886,25,1344,Armstrong Ave.,8,Northampton,Virginia,43302
1030362542,624686726,18,694,Harrison St.,2,Commack,Texas,69003
231831436,1403441859,2,2969,Jefferson Ave.,44,Wyandanch,Louisiana,23133
367731998,1053950251,8,5583,Joy Ct.,23,Ronkonkoma,Washington,35519
141003119,1129444620,19,2858,Washington Ave.,85,Wyandanch,New Jersey,60351
284191009,1256097776,30,3174,King Dr.,8,Ronkonkoma,New Jersey,31207
451784875,1110649268,6,4611,Hollis Lane,99,Quogue,Oregon,44082
1880662372,220819930,23,5879,Hicksville Road,8,Quogue,Texas,12376
730139535,9077644,16,4078,Jefferson Ave.,9,Mattituck,New York,25321
1178732744,1596349783,8,5695,Hicksville Road,4,Northampton,California,48209
1847575225,1416590732,1,1876,Harrison St.,1,Copaigue,New Jersey,11279
1238985312,69650580,20,1936,Joy Ct.,9,Amagansett,Florida,72175
239727846,1212443591,2,3567,Canal St.,6,Northampton,Florida,28189
252258997,1700163885,3,5859,Armstrong Ave.,9,Massapequa,Washington,54435
1159645488,607627938,6,4504,Armstrong Ave.,6,Copaigue,New York,61914
1224681483,1086387984,20,2224,Hicksville Road,2,Yaphank,Georgia,41050
768153768,1831152149,4,5021,James Ct.,44,Quogue,California,48271
